[{"OBJECT_NAME":"STARLINK-36224","OBJECT_ID":"2025-304M","EPOCH":"2026-03-09T16:26:50.093664","MEAN_MOTION":14.97535483,"ECCENTRICITY":0.00042289,"INCLINATION":70.0008,"RA_OF_ASC_NODE":174.4831,"ARG_OF_PERICENTER":273.0988,"MEAN_ANOMALY":86.9687,"EPHEMERIS_TYPE":0,"CLASSIFICATION_TYPE":"U","NORAD_CAT_ID":67203,"ELEMENT_SET_NO":999,"REV_AT_EPOCH":1388,"BSTAR":0.00028130763,"MEAN_MOTION_DOT":3.198e-5,"MEAN_MOTION_DDOT":0},{"OBJECT_NAME":"IRIDIUM 33 DEB","OBJECT_ID":"1997-051CX","EPOCH":"2026-03-09T17:43:24.588192","MEAN_MOTION":14.98094004,"ECCENTRICITY":0.00015404,"INCLINATION":86.3865,"RA_OF_ASC_NODE":350.5598,"ARG_OF_PERICENTER":95.4765,"MEAN_ANOMALY":329.7207,"EPHEMERIS_TYPE":0,"CLASSIFICATION_TYPE":"U","NORAD_CAT_ID":34088,"ELEMENT_SET_NO":999,"REV_AT_EPOCH":90041,"BSTAR":0.0032183732,"MEAN_MOTION_DOT":0.00038264,"MEAN_MOTION_DDOT":0}]
